[{"OBJECT_NAME":"ONEWEB-0057","OBJECT_ID":"2020-008AF","EPOCH":"2025-12-23T05:16:40.828800","MEAN_MOTION":13.10369838,"ECCENTRICITY":0.00019299,"INCLINATION":87.8799,"RA_OF_ASC_NODE":71.3538,"ARG_OF_PERICENTER":109.0781,"MEAN_ANOMALY":251.0556,"EPHEMERIS_TYPE":0,"CLASSIFICATION_TYPE":"U","NORAD_CAT_ID":45160,"ELEMENT_SET_NO":999,"REV_AT_EPOCH":28530,"BSTAR":0.00046315919,"MEAN_MOTION_DOT":1.74e-6,"MEAN_MOTION_DDOT":0},{"OBJECT_NAME":"ONEWEB-0058","OBJECT_ID":"2020-008AG","EPOCH":"2025-12-23T04:57:34.971264","MEAN_MOTION":13.10370676,"ECCENTRICITY":0.00016138,"INCLINATION":87.8797,"RA_OF_ASC_NODE":71.3663,"ARG_OF_PERICENTER":93.4446,"MEAN_ANOMALY":266.6866,"EPHEMERIS_TYPE":0,"CLASSIFICATION_TYPE":"U","NORAD_CAT_ID":45161,"ELEMENT_SET_NO":999,"REV_AT_EPOCH":28537,"BSTAR":0.0019715807,"MEAN_MOTION_DOT":7.01e-6,"MEAN_MOTION_DDOT":0},{"OBJECT_NAME":"ONEWEB-0059","OBJECT_ID":"2020-008AH","EPOCH":"2025-12-23T04:52:35.895936","MEAN_MOTION":13.10373755,"ECCENTRICITY":0.00017469,"INCLINATION":87.88,"RA_OF_ASC_NODE":71.3678,"ARG_OF_PERICENTER":99.9737,"MEAN_ANOMALY":260.1588,"EPHEMERIS_TYPE":0,"CLASSIFICATION_TYPE":"U","NORAD_CAT_ID":45162,"ELEMENT_SET_NO":999,"REV_AT_EPOCH":28527,"BSTAR":0.0017633371,"MEAN_MOTION_DOT":6.28e-6,"MEAN_MOTION_DDOT":0},{"OBJECT_NAME":"ONEWEB-0062","OBJECT_ID":"2020-008AJ","EPOCH":"2025-12-23T05:29:36.792384","MEAN_MOTION":13.10369304,"ECCENTRICITY":0.00014784,"INCLINATION":87.8802,"RA_OF_ASC_NODE":71.3391,"ARG_OF_PERICENTER":90.5947,"MEAN_ANOMALY":269.535,"EPHEMERIS_TYPE":0,"CLASSIFICATION_TYPE":"U","NORAD_CAT_ID":45163,"ELEMENT_SET_NO":999,"REV_AT_EPOCH":28514,"BSTAR":-0.00096718834,"MEAN_MOTION_DOT":-3.25e-6,"MEAN_MOTION_DDOT":0},{"OBJECT_NAME":"ONEWEB-0065","OBJECT_ID":"2020-008AK","EPOCH":"2025-12-23T04:23:42.864864","MEAN_MOTION":13.10377967,"ECCENTRICITY":0.00018096,"INCLINATION":87.8805,"RA_OF_ASC_NODE":71.3631,"ARG_OF_PERICENTER":114.4787,"MEAN_ANOMALY":245.6529,"EPHEMERIS_TYPE":0,"CLASSIFICATION_TYPE":"U","NORAD_CAT_ID":45164,"ELEMENT_SET_NO":999,"REV_AT_EPOCH":28483,"BSTAR":-2.2584394e-5,"MEAN_MOTION_DOT":5.0e-8,"MEAN_MOTION_DDOT":0},{"OBJECT_NAME":"ONEWEB-0066","OBJECT_ID":"2020-020A","EPOCH":"2025-12-23T04:57:08.306496","MEAN_MOTION":13.11417516,"ECCENTRICITY":0.00020081,"INCLINATION":87.8858,"RA_OF_ASC_NODE":56.1057,"ARG_OF_PERICENTER":99.9524,"MEAN_ANOMALY":260.1831,"EPHEMERIS_TYPE":0,"CLASSIFICATION_TYPE":"U","NORAD_CAT_ID":45424,"ELEMENT_SET_NO":999,"REV_AT_EPOCH":27961,"BSTAR":-0.00094874726,"MEAN_MOTION_DOT":-3.24e-6,"MEAN_MOTION_DDOT":0},{"OBJECT_NAME":"ONEWEB-0067","OBJECT_ID":"2020-020B","EPOCH":"2025-12-23T04:01:10.958016","MEAN_MOTION":13.1141541,"ECCENTRICITY":0.00019614,"INCLINATION":87.8855,"RA_OF_ASC_NODE":56.0175,"ARG_OF_PERICENTER":103.4188,"MEAN_ANOMALY":256.7159,"EPHEMERIS_TYPE":0,"CLASSIFICATION_TYPE":"U","NORAD_CAT_ID":45425,"ELEMENT_SET_NO":999,"REV_AT_EPOCH":27966,"BSTAR":0.00091743506,"MEAN_MOTION_DOT":3.38e-6,"MEAN_MOTION_DDOT":0},{"OBJECT_NAME":"ONEWEB-0080","OBJECT_ID":"2020-020C","EPOCH":"2025-12-23T04:14:24.698400","MEAN_MOTION":13.11413584,"ECCENTRICITY":0.00017687,"INCLINATION":87.8845,"RA_OF_ASC_NODE":56.1124,"ARG_OF_PERICENTER":90.933,"MEAN_ANOMALY":269.2001,"EPHEMERIS_TYPE":0,"CLASSIFICATION_TYPE":"U","NORAD_CAT_ID":45426,"ELEMENT_SET_NO":999,"REV_AT_EPOCH":27963,"BSTAR":0.00041731087,"MEAN_MOTION_DOT":1.61e-6,"MEAN_MOTION_DDOT":0},{"OBJECT_NAME":"ONEWEB-0090","OBJECT_ID":"2020-020D","EPOCH":"2025-12-23T04:42:27.576000","MEAN_MOTION":13.11415297,"ECCENTRICITY":0.00017564,"INCLINATION":87.8849,"RA_OF_ASC_NODE":56.1101,"ARG_OF_PERICENTER":100.3897,"MEAN_ANOMALY":259.7429,"EPHEMERIS_TYPE":0,"CLASSIFICATION_TYPE":"U","NORAD_CAT_ID":45427,"ELEMENT_SET_NO":999,"REV_AT_EPOCH":27960,"BSTAR":-0.0013700292,"MEAN_MOTION_DOT":-4.73e-6,"MEAN_MOTION_DDOT":0},{"OBJECT_NAME":"ONEWEB-0061","OBJECT_ID":"2020-020E","EPOCH":"2025-12-23T05:28:40.353312","MEAN_MOTION":13.11416481,"ECCENTRICITY":0.00018031,"INCLINATION":87.8855,"RA_OF_ASC_NODE":56.0854,"ARG_OF_PERICENTER":100.6234,"MEAN_ANOMALY":259.5097,"EPHEMERIS_TYPE":0,"CLASSIFICATION_TYPE":"U","NORAD_CAT_ID":45428,"ELEMENT_SET_NO":999,"REV_AT_EPOCH":27956,"BSTAR":0.0012559459,"MEAN_MOTION_DOT":4.58e-6,"MEAN_MOTION_DDOT":0},{"OBJECT_NAME":"ONEWEB-0081","OBJECT_ID":"2020-020F","EPOCH":"2025-12-23T03:12:09.116640","MEAN_MOTION":13.11418759,"ECCENTRICITY":0.00020151,"INCLINATION":87.8857,"RA_OF_ASC_NODE":56.12,"ARG_OF_PERICENTER":100.7424,"MEAN_ANOMALY":259.3931,"EPHEMERIS_TYPE":0,"CLASSIFICATION_TYPE":"U","NORAD_CAT_ID":45429,"ELEMENT_SET_NO":999,"REV_AT_EPOCH":27966,"BSTAR":-0.00065507959,"MEAN_MOTION_DOT":-2.19e-6,"MEAN_MOTION_DDOT":0},{"OBJECT_NAME":"ONEWEB-0069","OBJECT_ID":"2020-020G","EPOCH":"2025-12-23T04:46:08.139648","MEAN_MOTION":13.11416737,"ECCENTRICITY":0.00018672,"INCLINATION":87.8855,"RA_OF_ASC_NODE":56.1032,"ARG_OF_PERICENTER":101.4435,"MEAN_ANOMALY":258.6903,"EPHEMERIS_TYPE":0,"CLASSIFICATION_TYPE":"U","NORAD_CAT_ID":45430,"ELEMENT_SET_NO":999,"REV_AT_EPOCH":27960,"BSTAR":-0.0013663583,"MEAN_MOTION_DOT":-4.72e-6,"MEAN_MOTION_DDOT":0},{"OBJECT_NAME":"ONEWEB-0031","OBJECT_ID":"2020-020H","EPOCH":"2025-12-23T04:05:52.069056","MEAN_MOTION":13.11413537,"ECCENTRICITY":0.0001617,"INCLINATION":87.8831,"RA_OF_ASC_NODE":56.1334,"ARG_OF_PERICENTER":104.5715,"MEAN_ANOMALY":255.5592,"EPHEMERIS_TYPE":0,"CLASSIFICATION_TYPE":"U","NORAD_CAT_ID":45431,"ELEMENT_SET_NO":999,"REV_AT_EPOCH":27958,"BSTAR":0.00081730887,"MEAN_MOTION_DOT":3.02e-6,"MEAN_MOTION_DDOT":0},{"OBJECT_NAME":"ONEWEB-0027","OBJECT_ID":"2020-020J","EPOCH":"2025-12-23T03:12:53.779392","MEAN_MOTION":13.1764813,"ECCENTRICITY":0.00013945,"INCLINATION":87.9109,"RA_OF_ASC_NODE":40.8437,"ARG_OF_PERICENTER":100.2691,"MEAN_ANOMALY":259.8598,"EPHEMERIS_TYPE":0,"CLASSIFICATION_TYPE":"U","NORAD_CAT_ID":45432,"ELEMENT_SET_NO":999,"REV_AT_EPOCH":28317,"BSTAR":2.6710445e-5,"MEAN_MOTION_DOT":2.3e-7,"MEAN_MOTION_DDOT":0},{"OBJECT_NAME":"ONEWEB-0064","OBJECT_ID":"2020-020K","EPOCH":"2025-12-23T04:03:25.708320","MEAN_MOTION":13.11414328,"ECCENTRICITY":0.00016098,"INCLINATION":87.8846,"RA_OF_ASC_NODE":56.1221,"ARG_OF_PERICENTER":100.231,"MEAN_ANOMALY":259.8999,"EPHEMERIS_TYPE":0,"CLASSIFICATION_TYPE":"U","NORAD_CAT_ID":45433,"ELEMENT_SET_NO":999,"REV_AT_EPOCH":27961,"BSTAR":0.0011785665,"MEAN_MOTION_DOT":4.3e-6,"MEAN_MOTION_DDOT":0},{"OBJECT_NAME":"ONEWEB-0018","OBJECT_ID":"2020-020L","EPOCH":"2025-12-23T04:49:46.974432","MEAN_MOTION":13.11415432,"ECCENTRICITY":0.00018906,"INCLINATION":87.8856,"RA_OF_ASC_NODE":56.1069,"ARG_OF_PERICENTER":96.8629,"MEAN_ANOMALY":263.2714,"EPHEMERIS_TYPE":0,"CLASSIFICATION_TYPE":"U","NORAD_CAT_ID":45434,"ELEMENT_SET_NO":999,"REV_AT_EPOCH":27956,"BSTAR":-0.0013141166,"MEAN_MOTION_DOT":-4.53e-6,"MEAN_MOTION_DDOT":0}]
