ONEWEB-0057             
1 45160U 20008AF  25357.21991700  .00000174  00000+0  46316-3 0  9991
2 45160  87.8799  71.3538 0001929 109.0781 251.0556 13.10369838285304
ONEWEB-0058             
1 45161U 20008AG  25357.20665476  .00000701  00000+0  19716-2 0  9998
2 45161  87.8797  71.3663 0001613  93.4446 266.6866 13.10370676285371
ONEWEB-0059             
1 45162U 20008AH  25357.20319324  .00000628  00000+0  17633-2 0  9991
2 45162  87.8800  71.3678 0001746  99.9737 260.1588 13.10373755285274
ONEWEB-0062             
1 45163U 20008AJ  25357.22889806 -.00000325  00000+0 -96719-3 0  9990
2 45163  87.8802  71.3391 0001478  90.5947 269.5350 13.10369304285142
ONEWEB-0065             
1 45164U 20008AK  25357.18313501  .00000005  00000+0 -22584-4 0  9994
2 45164  87.8805  71.3631 0001809 114.4787 245.6529 13.10377967284831
ONEWEB-0066             
1 45424U 20020A   25357.20634614 -.00000324  00000+0 -94875-3 0  9997
2 45424  87.8858  56.1057 0002008  99.9524 260.1831 13.11417516279613
ONEWEB-0067             
1 45425U 20020B   25357.16748794  .00000338  00000+0  91744-3 0  9993
2 45425  87.8855  56.0175 0001961 103.4188 256.7159 13.11415410279665
ONEWEB-0080             
1 45426U 20020C   25357.17667475  .00000161  00000+0  41731-3 0  9996
2 45426  87.8845  56.1124 0001768  90.9330 269.2001 13.11413584279636
ONEWEB-0090             
1 45427U 20020D   25357.19615250 -.00000473  00000+0 -13700-2 0  9995
2 45427  87.8849  56.1101 0001756 100.3897 259.7429 13.11415297279605
ONEWEB-0061             
1 45428U 20020E   25357.22824483  .00000458  00000+0  12559-2 0  9992
2 45428  87.8855  56.0854 0001803 100.6234 259.5097 13.11416481279568
ONEWEB-0081             
1 45429U 20020F   25357.13343885 -.00000219  00000+0 -65508-3 0  9995
2 45429  87.8857  56.1200 0002015 100.7424 259.3931 13.11418759279661
ONEWEB-0069             
1 45430U 20020G   25357.19870532 -.00000472  00000+0 -13664-2 0  9993
2 45430  87.8855  56.1032 0001867 101.4435 258.6903 13.11416737279607
ONEWEB-0031             
1 45431U 20020H   25357.17074154  .00000302  00000+0  81731-3 0  9999
2 45431  87.8831  56.1334 0001617 104.5715 255.5592 13.11413537279587
ONEWEB-0027             
1 45432U 20020J   25357.13395578  .00000023  00000+0  26710-4 0  9999
2 45432  87.9109  40.8437 0001394 100.2691 259.8598 13.17648130283177
ONEWEB-0064             
1 45433U 20020K   25357.16904755  .00000430  00000+0  11786-2 0  9993
2 45433  87.8846  56.1221 0001609 100.2310 259.8999 13.11414328279616
ONEWEB-0018             
1 45434U 20020L   25357.20123813 -.00000453  00000+0 -13141-2 0  9991
2 45434  87.8856  56.1069 0001890  96.8629 263.2714 13.11415432279568
